start=new Date('2022-04-03T00:00:00.000Z').valueOf();
sats=[{"CENTER_NAME":"EARTH","GP_ID":"200320535","FILE":"3385473","RA_OF_ASC_NODE":"37.6380","CLASSIFICATION_TYPE":"U","APOAPSIS":"548.136","MEAN_ANOMALY":"283.4115","REF_FRAME":"TEME","SITE":"AFETR","ARG_OF_PERICENTER":"76.7027","OBJECT_TYPE":"PAYLOAD","LAUNCH_DATE":"2020-06-04","COUNTRY_CODE":"US","INCLINATION":"53.0554","ELEMENT_SET_NO":"999","MEAN_MOTION_DOT":"0.00010647","EPOCH":"2022-04-02T16:10:51.843360","NORAD_CAT_ID":"45659","MEAN_MOTION_DDOT":"0.0000000000000","TIME_SYSTEM":"UTC","RCS_SIZE":"LARGE","BSTAR":"0.00073237000000","MEAN_ELEMENT_THEORY":"SGP4","TLE_LINE2":"2 45659  53.0554  37.6380 0001373  76.7027 283.4115 15.06409360102138","REV_AT_EPOCH":"10213","PERIAPSIS":"546.234","PERIOD":"95.592","OBJECT_NAME":"STARLINK-1442","TLE_LINE1":"1 45659U 20035C   22092.67421115  .00010647  00000-0  73237-3 0  9994","OBJECT_ID":"2020-035C","SEMIMAJOR_AXIS":"6925.320","ECCENTRICITY":"0.00013730","DECAY_DATE":null,"EPHEMERIS_TYPE":"0","MEAN_MOTION":"15.06409360"},{"OBJECT_TYPE":"PAYLOAD","ARG_OF_PERICENTER":"55.8048","NORAD_CAT_ID":"45660","MEAN_MOTION_DOT":"0.00000271","EPOCH":"2022-04-02T16:22:50.191968","INCLINATION":"53.0550","COUNTRY_CODE":"US","ELEMENT_SET_NO":"999","LAUNCH_DATE":"2020-06-04","FILE":"3385473","GP_ID":"200320785","CENTER_NAME":"EARTH","SITE":"AFETR","REF_FRAME":"TEME","MEAN_ANOMALY":"304.3091","APOAPSIS":"548.344","RA_OF_ASC_NODE":"37.5986","CLASSIFICATION_TYPE":"U","OBJECT_ID":"2020-035D","TLE_LINE1":"1 45660U 20035D   22092.68252537  .00000271  00000-0  37106-4 0  9995","PERIOD":"95.593","PERIAPSIS":"546.154","OBJECT_NAME":"STARLINK-1443","MEAN_MOTION":"15.06388408","EPHEMERIS_TYPE":"0","ECCENTRICITY":"0.00015810","DECAY_DATE":null,"SEMIMAJOR_AXIS":"6925.384","TIME_SYSTEM":"UTC","MEAN_MOTION_DDOT":"0.0000000000000","REV_AT_EPOCH":"10214","RCS_SIZE":"LARGE","BSTAR":"0.00003710600000","MEAN_ELEMENT_THEORY":"SGP4","TLE_LINE2":"2 45660  53.0550  37.5986 0001581  55.8048 304.3091 15.06388408102145"},{"MEAN_MOTION_DOT":"0.00000221","EPOCH":"2022-04-02T13:38:18.684384","NORAD_CAT_ID":"45661","LAUNCH_DATE":"2020-06-04","INCLINATION":"53.0568","COUNTRY_CODE":"US","ELEMENT_SET_NO":"999","ARG_OF_PERICENTER":"65.7683","OBJECT_TYPE":"PAYLOAD","REF_FRAME":"TEME","MEAN_ANOMALY":"294.3458","SITE":"AFETR","RA_OF_ASC_NODE":"38.1029","CLASSIFICATION_TYPE":"U","APOAPSIS":"548.258","CENTER_NAME":"EARTH","FILE":"3385473","GP_ID":"200321036","EPHEMERIS_TYPE":"0","MEAN_MOTION":"15.06388340","SEMIMAJOR_AXIS":"6925.384","ECCENTRICITY":"0.00014570","DECAY_DATE":null,"TLE_LINE1":"1 45661U 20035E   22092.56827181  .00000221  00000-0  33710-4 0  9998","OBJECT_ID":"2020-035E","PERIAPSIS":"546.240","PERIOD":"95.593","OBJECT_NAME":"STARLINK-1444","RCS_SIZE":"LARGE","BSTAR":"0.00003371000000","MEAN_ELEMENT_THEORY":"SGP4","TLE_LINE2":"2 45661  53.0568  38.1029 0001457  65.7683 294.3458 15.06388340102125","REV_AT_EPOCH":"10212","TIME_SYSTEM":"UTC","MEAN_MOTION_DDOT":"0.0000000000000"},{"SEMIMAJOR_AXIS":"6925.366","DECAY_DATE":null,"ECCENTRICITY":"0.00016710","EPHEMERIS_TYPE":"0","MEAN_MOTION":"15.06394286","OBJECT_NAME":"STARLINK-1445","PERIOD":"95.593","PERIAPSIS":"546.074","TLE_LINE1":"1 45662U 20035F   22092.58301125 -.00000516  00000-0 -15774-4 0  9995","OBJECT_ID":"2020-035F","TLE_LINE2":"2 45662  53.0548  38.0304 0001671  64.5064 295.6098 15.06394286102127","RCS_SIZE":"LARGE","BSTAR":"-0.00001577400000","MEAN_ELEMENT_THEORY":"SGP4","REV_AT_EPOCH":"10212","MEAN_MOTION_DDOT":"0.0000000000000","TIME_SYSTEM":"UTC","LAUNCH_DATE":"2020-06-04","ELEMENT_SET_NO":"999","INCLINATION":"53.0548","COUNTRY_CODE":"US","EPOCH":"2022-04-02T13:59:32.172000","MEAN_MOTION_DOT":"-0.00000516","NORAD_CAT_ID":"45662","ARG_OF_PERICENTER":"64.5064","OBJECT_TYPE":"PAYLOAD","CLASSIFICATION_TYPE":"U","RA_OF_ASC_NODE":"38.0304","APOAPSIS":"548.388","REF_FRAME":"TEME","MEAN_ANOMALY":"295.6098","SITE":"AFETR","CENTER_NAME":"EARTH","GP_ID":"200321787","FILE":"3385473"},{"TLE_LINE1":"1 45663U 20035G   22092.58668486  .00008572  00000-0  59374-3 0  9993","OBJECT_ID":"2020-035G","PERIAPSIS":"546.277","PERIOD":"95.592","OBJECT_NAME":"STARLINK-1446","MEAN_MOTION":"15.06396137","EPHEMERIS_TYPE":"0","SEMIMAJOR_AXIS":"6925.360","ECCENTRICITY":"0.00013690","DECAY_DATE":null,"TIME_SYSTEM":"UTC","MEAN_MOTION_DDOT":"0.0000000000000","BSTAR":"0.00059374000000","RCS_SIZE":"LARGE","MEAN_ELEMENT_THEORY":"SGP4","TLE_LINE2":"2 45663  53.0545  38.0162 0001369  65.4152 294.6979 15.06396137102123","REV_AT_EPOCH":"10212","ARG_OF_PERICENTER":"65.4152","OBJECT_TYPE":"PAYLOAD","MEAN_MOTION_DOT":"0.00008572","EPOCH":"2022-04-02T14:04:49.571904","NORAD_CAT_ID":"45663","LAUNCH_DATE":"2020-06-04","INCLINATION":"53.0545","COUNTRY_CODE":"US","ELEMENT_SET_NO":"999","CENTER_NAME":"EARTH","FILE":"3385473","GP_ID":"200320035","REF_FRAME":"TEME","MEAN_ANOMALY":"294.6979","SITE":"AFETR","RA_OF_ASC_NODE":"38.0162","CLASSIFICATION_TYPE":"U","APOAPSIS":"548.173"},{"INCLINATION":"53.0555","COUNTRY_CODE":"US","ELEMENT_SET_NO":"999","LAUNCH_DATE":"2020-06-04","NORAD_CAT_ID":"45665","MEAN_MOTION_DOT":"0.00000561","EPOCH":"2022-04-02T19:39:14.296608","OBJECT_TYPE":"PAYLOAD","ARG_OF_PERICENTER":"62.6675","APOAPSIS":"548.334","RA_OF_ASC_NODE":"36.9706","CLASSIFICATION_TYPE":"U","SITE":"AFETR","MEAN_ANOMALY":"297.4472","REF_FRAME":"TEME","FILE":"3385473","GP_ID":"200320285","CENTER_NAME":"EARTH","ECCENTRICITY":"0.00015540","DECAY_DATE":null,"SEMIMAJOR_AXIS":"6925.392","MEAN_MOTION":"15.06385719","EPHEMERIS_TYPE":"0","PERIAPSIS":"546.181","PERIOD":"95.593","OBJECT_NAME":"STARLINK-1448","OBJECT_ID":"2020-035J","TLE_LINE1":"1 45665U 20035J   22092.81891547  .00000561  00000-0  56550-4 0  9991","REV_AT_EPOCH":"10215","BSTAR":"0.00005655000000","RCS_SIZE":"LARGE","MEAN_ELEMENT_THEORY":"SGP4","TLE_LINE2":"2 45665  53.0555  36.9706 0001554  62.6675 297.4472 15.06385719102158","MEAN_MOTION_DDOT":"0.0000000000000","TIME_SYSTEM":"UTC"},{"EPHEMERIS_TYPE":"0","MEAN_MOTION":"15.06390665","SEMIMAJOR_AXIS":"6925.377","ECCENTRICITY":"0.00015910","DECAY_DATE":null,"TLE_LINE1":"1 45666U 20035K   22092.22821130 -.00003198  00000-0 -19593-3 0  9994","OBJECT_ID":"2020-035K","PERIAPSIS":"546.140","PERIOD":"95.593","OBJECT_NAME":"STARLINK-1449","MEAN_ELEMENT_THEORY":"SGP4","RCS_SIZE":"LARGE","BSTAR":"-0.00019593000000","TLE_LINE2":"2 45666  53.0557  39.6398 0001591  59.3825 300.7320 15.06390665101660","REV_AT_EPOCH":"10166","TIME_SYSTEM":"UTC","MEAN_MOTION_DDOT":"0.0000000000000","MEAN_MOTION_DOT":"-0.00003198","EPOCH":"2022-04-02T05:28:37.456320","NORAD_CAT_ID":"45666","LAUNCH_DATE":"2020-06-04","INCLINATION":"53.0557","COUNTRY_CODE":"US","ELEMENT_SET_NO":"999","ARG_OF_PERICENTER":"59.3825","OBJECT_TYPE":"PAYLOAD","MEAN_ANOMALY":"300.7320","REF_FRAME":"TEME","SITE":"AFETR","RA_OF_ASC_NODE":"39.6398","CLASSIFICATION_TYPE":"U","APOAPSIS":"548.344","CENTER_NAME":"EARTH","GP_ID":"200274261","FILE":"3384151"},{"MEAN_MOTION_DDOT":"0.0000000000000","TIME_SYSTEM":"UTC","RCS_SIZE":"LARGE","BSTAR":"-0.00006048200000","MEAN_ELEMENT_THEORY":"SGP4","TLE_LINE2":"2 45667  53.0552  36.9563 0001363  70.5043 289.6093 15.06394408101801","REV_AT_EPOCH":"10180","PERIOD":"95.592","PERIAPSIS":"546.287","OBJECT_NAME":"STARLINK-1450","TLE_LINE1":"1 45667U 20035L   22092.82259801 -.00001182  00000-0 -60482-4 0  9996","OBJECT_ID":"2020-035L","SEMIMAJOR_AXIS":"6925.366","ECCENTRICITY":"0.00013630","DECAY_DATE":null,"MEAN_MOTION":"15.06394408","EPHEMERIS_TYPE":"0","CENTER_NAME":"EARTH","FILE":"3385156","GP_ID":"200296810","RA_OF_ASC_NODE":"36.9563","CLASSIFICATION_TYPE":"U","APOAPSIS":"548.175","REF_FRAME":"TEME","MEAN_ANOMALY":"289.6093","SITE":"AFETR","ARG_OF_PERICENTER":"70.5043","OBJECT_TYPE":"PAYLOAD","LAUNCH_DATE":"2020-06-04","COUNTRY_CODE":"US","INCLINATION":"53.0552","ELEMENT_SET_NO":"999","MEAN_MOTION_DOT":"-0.00001182","EPOCH":"2022-04-02T19:44:32.468064","NORAD_CAT_ID":"45667"},{"OBJECT_ID":"2020-035M","TLE_LINE1":"1 45668U 20035M   22092.85849556  .00001052  00000-0  89475-4 0  9999","PERIAPSIS":"545.989","PERIOD":"95.592","OBJECT_NAME":"STARLINK-1451","MEAN_MOTION":"15.06407021","EPHEMERIS_TYPE":"0","ECCENTRICITY":"0.00017370","DECAY_DATE":null,"SEMIMAJOR_AXIS":"6925.327","TIME_SYSTEM":"UTC","MEAN_MOTION_DDOT":"0.0000000000000","REV_AT_EPOCH":"10217","RCS_SIZE":"LARGE","MEAN_ELEMENT_THEORY":"SGP4","BSTAR":"0.00008947500000","TLE_LINE2":"2 45668  53.0587  36.7959 0001737  57.1116 303.0040 15.06407021102174","OBJECT_TYPE":"PAYLOAD","ARG_OF_PERICENTER":"57.1116","NORAD_CAT_ID":"45668","MEAN_MOTION_DOT":"0.00001052","EPOCH":"2022-04-02T20:36:14.016384","INCLINATION":"53.0587","COUNTRY_CODE":"US","ELEMENT_SET_NO":"999","LAUNCH_DATE":"2020-06-04","GP_ID":"200320536","FILE":"3385473","CENTER_NAME":"EARTH","SITE":"AFETR","REF_FRAME":"TEME","MEAN_ANOMALY":"303.0040","APOAPSIS":"548.395","RA_OF_ASC_NODE":"36.7959","CLASSIFICATION_TYPE":"U"},{"MEAN_ANOMALY":"305.1831","REF_FRAME":"TEME","SITE":"AFETR","RA_OF_ASC_NODE":"38.0688","CLASSIFICATION_TYPE":"U","APOAPSIS":"548.466","CENTER_NAME":"EARTH","FILE":"3385473","GP_ID":"200320786","MEAN_MOTION_DOT":"-0.00002496","EPOCH":"2022-04-02T13:48:54.988416","NORAD_CAT_ID":"45669","LAUNCH_DATE":"2020-06-04","INCLINATION":"53.0552","COUNTRY_CODE":"US","ELEMENT_SET_NO":"999","ARG_OF_PERICENTER":"54.9325","OBJECT_TYPE":"PAYLOAD","BSTAR":"-0.00014873000000","RCS_SIZE":"LARGE","MEAN_ELEMENT_THEORY":"SGP4","TLE_LINE2":"2 45669  53.0552  38.0688 0001784  54.9325 305.1831 15.06394495102126","REV_AT_EPOCH":"10212","TIME_SYSTEM":"UTC","MEAN_MOTION_DDOT":"0.0000000000000","MEAN_MOTION":"15.06394495","EPHEMERIS_TYPE":"0","SEMIMAJOR_AXIS":"6925.365","ECCENTRICITY":"0.00017840","DECAY_DATE":null,"TLE_LINE1":"1 45669U 20035N   22092.57563644 -.00002496  00000-0 -14873-3 0  9994","OBJECT_ID":"2020-035N","PERIOD":"95.592","PERIAPSIS":"545.995","OBJECT_NAME":"STARLINK-1452"}];
